STARLINK-11465 [DTC]    
1 62057U 24217A   26087.83692703  .00267693  00000+0  21463-2 0  9997
2 62057  53.1575 336.6613 0001044  22.4743 337.6321 15.69682707 78187
STARLINK-11426 [DTC]    
1 62058U 24217B   26087.83201486  .00333263  00000+0  26248-2 0  9995
2 62058  53.1579 336.6276 0000445 172.1337 187.9688 15.69908694 78125
STARLINK-11454 [DTC]    
1 62059U 24217C   26087.86636269  .00312273  00000+0  24655-2 0  9998
2 62059  53.1578 336.8546 0001653  70.4231 289.6965 15.69915634 78188
STARLINK-11473 [DTC]    
1 62060U 24217D   26087.87616824  .00382015  00000+0  29759-2 0  9997
2 62060  53.1571 336.9192 0000490 279.8860  80.2103 15.70024262 78181
STARLINK-11429 [DTC]    
1 62061U 24217E   26087.86145177  .00209868  00000+0  16900-2 0  9993
2 62061  53.1580 336.8216 0000575 123.0733 237.0340 15.69761266 78186
STARLINK-11470 [DTC]    
1 62062U 24217F   26087.85654904  .00261660  00000+0  20826-2 0  9996
2 62062  53.1582 336.7877 0000260 101.9486 258.1561 15.69877678 78120
STARLINK-11427 [DTC]    
1 62063U 24217G   26087.87126419  .00319137  00000+0  25271-2 0  9996
2 62063  53.1571 336.8857 0001065 166.4306 193.6740 15.69823718 78183
STARLINK-11456 [DTC]    
1 62064U 24217H   26087.84182714  .00116411  00000+0  95171-3 0  9991
2 62064  53.1573 336.6910 0001546  18.0954 342.0119 15.69724494 78180
STARLINK-11474 [DTC]    
1 62065U 24217J   26087.69977378  .00219636  00000+0  17589-2 0  9992
2 62065  53.1578 337.2212 0000318 334.2657  25.8345 15.69863117 78168
STARLINK-11463 [DTC]    
1 62066U 24217K   26087.85163581  .00377737  00000+0  29499-2 0  9994
2 62066  53.1575 336.7558 0003576 176.6518 183.4524 15.69978119 78187
STARLINK-11472 [DTC]    
1 62067U 24217L   26087.88598395  .00331550  00000+0  26335-2 0  9992
2 62067  53.1575 336.9814 0001288  44.0037 316.1083 15.69710832 78111
STARLINK-11467 [DTC]    
1 62068U 24217M   26087.84672376  .00059248  00000+0  49058-3 0  9990
2 62068  53.1573 336.7223 0001298   9.7895 350.3148 15.69701351 78188
STARLINK-11460 [DTC]    
1 62069U 24217N   26087.88107779  .00348500  00000+0  27615-2 0  9991
2 62069  53.1575 336.9473 0001039  35.6068 324.5019 15.69715889 78128
STARLINK-32604          
1 62070U 24217P   26087.47442750  .00024737  00000+0  84410-3 0  9999
2 62070  53.1593 106.9107 0001245  89.0800 271.0343 15.30216954 76294
STARLINK-32553          
1 62071U 24217Q   26087.27742925  .00023681  00000+0  80893-3 0  9993
2 62071  53.1585 107.8132 0001156  83.9568 276.1565 15.30207882 76314
STARLINK-32603          
1 62072U 24217R   26087.46176533  .00030955  00000+0  10526-2 0  9998
2 62072  53.1592 106.8280 0001125  85.5913 274.5216 15.30208031 76349
STARLINK-32444          
1 62073U 24217S   26087.78201162  .00025695  00000+0  87658-3 0  9997
2 62073  53.1599 105.2886 0001325  91.3343 268.7810 15.30202855 76349
STARLINK-32619          
1 62074U 24217T   26087.34803536  .00022287  00000+0  76179-3 0  9993
2 62074  53.1588 107.5421 0001010  85.5362 274.5754 15.30223761 76278
STARLINK-32580          
1 62075U 24217U   26087.72774767  .00020794  00000+0  71204-3 0  9994
2 62075  53.1595  92.8601 0001472  87.4412 272.6757 15.30208918 76518
STARLINK-32617          
1 62076U 24217V   26087.44012000  .00038946  00000+0  13207-2 0  9995
2 62076  53.1588  93.9130 0001346 101.7385 258.3767 15.30187246 76476
SUPERVIEW NEO-2 03      
1 62079U 24218B   26086.53722237  .00000592  00000+0  30903-4 0  9998
2 62079  97.4388  95.0281 0001614  87.0000 273.1419 15.19721488 74045
SUPERVIEW NEO-2 04      
1 62080U 24218C   26086.53722125  .00001417  00000+0  69512-4 0  9991
2 62080  97.4390  95.0327 0001257 111.4891 248.6478 15.19721838 74045
KINEIS-5C               
1 62081U 24219A   26087.86423697 -.00001559  00000+0 -23884-3 0  9992
2 62081  97.9348 248.8984 0003964 125.8291 234.3285 14.72337290 71937
KINEIS-5D               
1 62082U 24219B   26087.83052343 -.00000914  00000+0 -13690-3 0  9994
2 62082  97.9311 248.8280 0003952 134.2760 225.8772 14.72331654 71933
KINEIS-5E               
1 62083U 24219C   26086.48802338  .00000293  00000+0  53987-4 0  9994
2 62083  97.9358 247.7160 0005534 117.3564 242.8208 14.72335915 71748
KINEIS-5A               
1 62084U 24219D   26087.88116074  .00001219  00000+0  20088-3 0  9999
2 62084  97.9569 249.2221 0004938 145.1223 215.0309 14.72232958 71956
KINEIS-5B               
1 62085U 24219E   26087.83615242  .00001610  00000+0  22961-3 0  9993
2 62085  97.9979 252.1816 0002709 142.6810 217.4590 14.78138222 72137
STARLINK-11384 [DTC]    
1 62088U 24220A   26087.85806970  .00286303  00000+0  21566-2 0  9993
2 62088  42.9992 287.9099 0001308 266.9600  93.1118 15.70863887 78063
STARLINK-11379 [DTC]    
1 62089U 24220B   26087.59842585  .00290996  00000+0  21636-2 0  9998
2 62089  42.9990 289.4005 0003920 160.5062 199.5956 15.71156138 77929
STARLINK-11387 [DTC]    
1 62090U 24220C   26087.84745316  .00228543  00000+0  17346-2 0  9994
2 62090  42.9981 287.8235 0001580 143.5606 216.5369 15.70860455 78060
STARLINK-11389 [DTC]    
1 62091U 24220D   26087.84214272  .00291918  00000+0  21870-2 0  9990
2 62091  43.0009 287.7826 0003309 257.4823 102.5674 15.70974728 77966
STARLINK-11388 [DTC]    
1 62092U 24220E   26087.83682968  .00259008  00000+0  19569-2 0  9997
2 62092  43.0000 287.7394 0001706 144.8249 215.2731 15.70874196 77962
STARLINK-11345 [DTC]    
1 62093U 24220F   26087.57718778  .00325586  00000+0  24202-2 0  9993
2 62093  43.0002 289.2301 0002130 248.2434 111.8207 15.71061747 77923
STARLINK-11381 [DTC]    
1 62094U 24220G   26087.82621590  .00155328  00000+0  11900-2 0  9993
2 62094  43.0005 287.6552 0001854 263.8746  96.1910 15.70868960 77969
STARLINK-11369 [DTC]    
1 62095U 24220H   26087.83335647 -.00110389  00000+0 -86719-3 0  9991
2 62095  42.9998 287.5398 0001708 258.0102 172.5266 15.70867595  6021
STARLINK-11303 [DTC]    
1 62096U 24220J   26087.56126023  .00223918  00000+0  16928-2 0  9993
2 62096  42.9997 289.1023 0003633 288.9628  71.0846 15.70965061 78021
STARLINK-11367 [DTC]    
1 62097U 24220K   26086.98371541  .00162858  00000+0  12464-2 0  9992
2 62097  42.9989 292.5106 0001720 295.8385  64.2305 15.70870572 77930
STARLINK-11386 [DTC]    
1 62098U 24220L   26087.55064303  .00422184  00000+0  30936-2 0  9997
2 62098  42.9997 289.0154 0002587 258.9465 101.1112 15.71115385 77926
STARLINK-11380 [DTC]    
1 62099U 24220M   26087.60891771  .00351177  00000+0  26015-2 0  9997
2 62099  42.9997 288.5893 0002868 256.6949 103.3599 15.71066193 77931
STARLINK-33566          
1 62100U 24220N   26087.66970185  .00032931  00000+0  11999-2 0  9992
2 62100  43.0008  83.6430 0002204 271.5793  88.4806 15.27605199 76262
STARLINK-33545          
1 62101U 24220P   26087.71402210  .00025959  00000+0  94859-3 0  9997
2 62101  43.0054  97.8527 0002823 271.1731  88.8798 15.27610722 75938
STARLINK-33562          
1 62102U 24220Q   26087.72559818  .00028370  00000+0  10364-2 0  9994
2 62102  42.9998  97.9409 0001029 276.3621  83.7113 15.27583064 75939
STARLINK-33554          
1 62103U 24220R   26087.71019752  .00036081  00000+0  13139-2 0  9993
2 62103  42.9986  97.8238 0001282 262.1797  97.8909 15.27589353 75862
STARLINK-33555          
1 62104U 24220S   26087.74358341  .00019995  00000+0  73375-3 0  9991
2 62104  43.0002  98.0724 0001920 270.1766  89.8865 15.27597695 76075
STARLINK-33559          
1 62107U 24220V   26087.47818413  .00018239  00000+0  67030-3 0  9996
2 62107  43.0048  99.5214 0001554 269.1332  90.9342 15.27598539 76068
STARLINK-33553          
1 62108U 24220W   26087.73201720  .00015062  00000+0  55551-3 0  9999
2 62108  43.0036  97.9896 0002071 270.3363  89.7252 15.27593596 76106
STARLINK-33556          
1 62109U 24220X   26087.71788150  .00020317  00000+0  74530-3 0  9992
2 62109  42.9996  97.8790 0001197 272.8346  87.2368 15.27601874 76120
STARLINK-33551          
1 62110U 24220Y   26087.47435284  .00022598  00000+0  82880-3 0  9994
2 62110  42.9995  99.4962 0000783 281.0898  78.9866 15.27556472 76060
GUANGCHUAN 01           
1 62111U 24221A   26087.79932411  .00003975  00000+0  23183-3 0  9994
2 62111  49.9435 193.3495 0007378 330.3437  29.7094 15.14056120 74006
GUANGCHUAN 02           
1 62112U 24221B   26087.80036957  .00004149  00000+0  24151-3 0  9997
2 62112  49.9419 193.2797 0006119  18.9390 341.1787 15.14024595 73990
STARLINK-32311          
1 62114U 24222A   26087.79232821  .00025644  00000+0  93756-3 0  9996
2 62114  43.0040  13.3176 0003651 276.4122  83.6314 15.27597962 76008
STARLINK-32470          
1 62115U 24222B   26087.53799144  .00022311  00000+0  81748-3 0  9991
2 62115  43.0011  29.5639 0001350 285.8040  74.2662 15.27594231 75789
STARLINK-32502          
1 62116U 24222C   26087.88676822  .00036614  00000+0  13327-2 0  9995
2 62116  43.0037  27.8792 0001177 265.6621  94.4096 15.27598578 75746
STARLINK-32521          
1 62117U 24222D   26087.87309749  .00042047  00000+0  15280-2 0  9993
2 62117  43.0034  24.2033 0001171 279.3556  80.7163 15.27596430 75722
STARLINK-32549          
1 62118U 24222E   26087.78540315  .00037096  00000+0  13497-2 0  9996
2 62118  42.9983  27.9825 0000656 315.4242  44.6557 15.27606012 75739
STARLINK-32535          
1 62119U 24222F   26087.24109605  .00040722  00000+0  14800-2 0  9990
2 62119  43.0026  28.1771 0001500 269.0473  91.0207 15.27606727 75632
STARLINK-32548          
1 62120U 24222G   26087.18165940  .00028070  00000+0  10256-2 0  9992
2 62120  43.0025  32.0467 0001791 251.1578 108.9079 15.27583661 75589
STARLINK-32525          
1 62121U 24222H   26087.20335033  .00037560  00000+0  13668-2 0  9992
2 62121  43.0016  31.3502 0001569 269.6623  90.4048 15.27596788 75596
STARLINK-32628          
1 62122U 24222J   26087.54827226  .00040293  00000+0  14651-2 0  9990
2 62122  43.0033  29.6388 0000898 301.3160  58.7603 15.27595392 75800
